[{"OBJECT_NAME":"STARLINK-4707","OBJECT_ID":"2022-107X","EPOCH":"2026-03-09T22:33:01.798560","MEAN_MOTION":15.08836989,"ECCENTRICITY":0.00012458,"INCLINATION":53.2157,"RA_OF_ASC_NODE":252.836,"ARG_OF_PERICENTER":94.8491,"MEAN_ANOMALY":265.2644,"EPHEMERIS_TYPE":0,"CLASSIFICATION_TYPE":"U","NORAD_CAT_ID":53721,"ELEMENT_SET_NO":999,"REV_AT_EPOCH":19445,"BSTAR":0.00011986102,"MEAN_MOTION_DOT":1.62e-5,"MEAN_MOTION_DDOT":0},{"OBJECT_NAME":"LEMUR-2-THERMORAPTOR","OBJECT_ID":"2025-061D","EPOCH":"2026-03-09T21:59:50.013312","MEAN_MOTION":15.13256334,"ECCENTRICITY":0.00176188,"INCLINATION":97.562,"RA_OF_ASC_NODE":45.6468,"ARG_OF_PERICENTER":235.5571,"MEAN_ANOMALY":124.3996,"EPHEMERIS_TYPE":0,"CLASSIFICATION_TYPE":"U","NORAD_CAT_ID":63354,"ELEMENT_SET_NO":999,"REV_AT_EPOCH":5259,"BSTAR":0.00030402789,"MEAN_MOTION_DOT":5.359e-5,"MEAN_MOTION_DDOT":0}]
